STARLINK-35736          
1 66230U 25244AA  25331.25002315  .00013342  00000+0  34350-3 0  9996
2 66230  53.1601 348.5456 0001214  76.1060   2.3972 15.39569216  5722
STARLINK-35735          
1 66231U 25244AB  25331.25002315  .00014275  00000+0  36667-3 0  9996
2 66231  53.1599 348.5420 0001156  71.8883   8.4389 15.39579143  5729
STARLINK-35753          
1 66232U 25244AC  25331.25002315 -.01976290  00000+0 -49660-1 0  9999
2 66232  53.1596 348.5036 0000898  89.4432  10.5103 15.42880979  5721
STARLINK-35626          
1 66233U 25244AD  25331.29653179 -.00375820  00000+0 -87535-2 0  9999
2 66233  53.1600 348.2788 0001515  34.5720 325.5385 15.43167614  5947
STARLINK-35537          
1 66234U 25245A   25331.20275928  .00054982  00000+0  13734-2 0  9995
2 66234  53.1607  42.8988 0001005  94.4868 265.6251 15.39648344  5525
STARLINK-35541          
1 66235U 25245B   25331.20242828  .00054705  00000+0  13665-2 0  9995
2 66235  53.1602  42.8957 0000640  88.7026 271.4052 15.39648637  5476
STARLINK-35454          
1 66236U 25245C   25331.25002315  .00040935  00000+0  10288-2 0  9994
2 66236  53.1607  42.6225 0000985  84.6020 203.3692 15.39591867  5453
STARLINK-35557          
1 66237U 25245D   25331.25002315  .00031742  00000+0  80023-3 0  9996
2 66237  53.1608  42.6187 0002223  39.2621 250.5025 15.39618597  5614
STARLINK-35556          
1 66238U 25245E   25331.25002315  .00030944  00000+0  78075-3 0  9994
2 66238  53.1610  42.5705 0001681 104.8124 208.8995 15.39607178  5612
STARLINK-35554          
1 66239U 25245F   25331.25002315  .00059356  00000+0  14852-2 0  9995
2 66239  53.1610  42.5669 0001833 104.9428 210.6120 15.39561755  5452
STARLINK-35546          
1 66240U 25245G   25331.25002315  .00031110  00000+0  78503-3 0  9999
2 66240  53.1609  42.5195 0001648  82.8718 256.5991 15.39601704  5618
STARLINK-35497          
1 66241U 25245H   25331.25002315  .00032542  00000+0  82057-3 0  9999
2 66241  53.1608  42.5162 0001534  86.5659 254.7344 15.39601210  5569
