CCSDS_OMM_VERS = 2.0
CREATION_DATE  = 
ORIGINATOR     = 

OBJECT_NAME    = STARLINK-35736
OBJECT_ID      = 2025-244AA
CENTER_NAME    = EARTH
REF_FRAME      = TEME
TIME_SYSTEM    = UTC
MEAN_ELEMENT_THEORY = SGP/SGP4

EPOCH          = 2025-11-27T06:00:02.000160
MEAN_MOTION    = 15.39569216
ECCENTRICITY   = .0001214
INCLINATION    = 53.1601
RA_OF_ASC_NODE = 348.5456
ARG_OF_PERICENTER = 76.1060
MEAN_ANOMALY   = 2.3972

EPHEMERIS_TYPE = 0
CLASSIFICATION_TYPE = U
NORAD_CAT_ID   = 66230
ELEMENT_SET_NO = 999
REV_AT_EPOCH   = 572
BSTAR          = .34350107E-3
MEAN_MOTION_DOT = .13342E-3
MEAN_MOTION_DDOT = 0

CCSDS_OMM_VERS = 2.0
CREATION_DATE  = 
ORIGINATOR     = 

OBJECT_NAME    = STARLINK-35735
OBJECT_ID      = 2025-244AB
CENTER_NAME    = EARTH
REF_FRAME      = TEME
TIME_SYSTEM    = UTC
MEAN_ELEMENT_THEORY = SGP/SGP4

EPOCH          = 2025-11-27T06:00:02.000160
MEAN_MOTION    = 15.39579143
ECCENTRICITY   = .00011562
INCLINATION    = 53.1599
RA_OF_ASC_NODE = 348.5420
ARG_OF_PERICENTER = 71.8883
MEAN_ANOMALY   = 8.4389

EPHEMERIS_TYPE = 0
CLASSIFICATION_TYPE = U
NORAD_CAT_ID   = 66231
ELEMENT_SET_NO = 999
REV_AT_EPOCH   = 572
BSTAR          = .36666545E-3
MEAN_MOTION_DOT = .14275E-3
MEAN_MOTION_DDOT = 0

CCSDS_OMM_VERS = 2.0
CREATION_DATE  = 
ORIGINATOR     = 

OBJECT_NAME    = STARLINK-35753
OBJECT_ID      = 2025-244AC
CENTER_NAME    = EARTH
REF_FRAME      = TEME
TIME_SYSTEM    = UTC
MEAN_ELEMENT_THEORY = SGP/SGP4

EPOCH          = 2025-11-27T06:00:02.000160
MEAN_MOTION    = 15.42880979
ECCENTRICITY   = .00008981
INCLINATION    = 53.1596
RA_OF_ASC_NODE = 348.5036
ARG_OF_PERICENTER = 89.4432
MEAN_ANOMALY   = 10.5103

EPHEMERIS_TYPE = 0
CLASSIFICATION_TYPE = U
NORAD_CAT_ID   = 66232
ELEMENT_SET_NO = 999
REV_AT_EPOCH   = 572
BSTAR          = -.49660282E-1
MEAN_MOTION_DOT = -.197629E-1
MEAN_MOTION_DDOT = 0

CCSDS_OMM_VERS = 2.0
CREATION_DATE  = 
ORIGINATOR     = 

OBJECT_NAME    = STARLINK-35626
OBJECT_ID      = 2025-244AD
CENTER_NAME    = EARTH
REF_FRAME      = TEME
TIME_SYSTEM    = UTC
MEAN_ELEMENT_THEORY = SGP/SGP4

EPOCH          = 2025-11-27T07:07:00.346656
MEAN_MOTION    = 15.43167614
ECCENTRICITY   = .00015159
INCLINATION    = 53.1600
RA_OF_ASC_NODE = 348.2788
ARG_OF_PERICENTER = 34.5720
MEAN_ANOMALY   = 325.5385

EPHEMERIS_TYPE = 0
CLASSIFICATION_TYPE = U
NORAD_CAT_ID   = 66233
ELEMENT_SET_NO = 999
REV_AT_EPOCH   = 594
BSTAR          = -.87534976E-2
MEAN_MOTION_DOT = -.37582E-2
MEAN_MOTION_DDOT = 0

CCSDS_OMM_VERS = 2.0
CREATION_DATE  = 
ORIGINATOR     = 

OBJECT_NAME    = STARLINK-35537
OBJECT_ID      = 2025-245A
CENTER_NAME    = EARTH
REF_FRAME      = TEME
TIME_SYSTEM    = UTC
MEAN_ELEMENT_THEORY = SGP/SGP4

EPOCH          = 2025-11-27T04:51:58.401792
MEAN_MOTION    = 15.39648344
ECCENTRICITY   = .00010053
INCLINATION    = 53.1607
RA_OF_ASC_NODE = 42.8988
ARG_OF_PERICENTER = 94.4868
MEAN_ANOMALY   = 265.6251

EPHEMERIS_TYPE = 0
CLASSIFICATION_TYPE = U
NORAD_CAT_ID   = 66234
ELEMENT_SET_NO = 999
REV_AT_EPOCH   = 552
BSTAR          = .13733627E-2
MEAN_MOTION_DOT = .54982E-3
MEAN_MOTION_DDOT = 0

CCSDS_OMM_VERS = 2.0
CREATION_DATE  = 
ORIGINATOR     = 

OBJECT_NAME    = STARLINK-35541
OBJECT_ID      = 2025-245B
CENTER_NAME    = EARTH
REF_FRAME      = TEME
TIME_SYSTEM    = UTC
MEAN_ELEMENT_THEORY = SGP/SGP4

EPOCH          = 2025-11-27T04:51:29.803392
MEAN_MOTION    = 15.39648637
ECCENTRICITY   = .00006404
INCLINATION    = 53.1602
RA_OF_ASC_NODE = 42.8957
ARG_OF_PERICENTER = 88.7026
MEAN_ANOMALY   = 271.4052

EPHEMERIS_TYPE = 0
CLASSIFICATION_TYPE = U
NORAD_CAT_ID   = 66235
ELEMENT_SET_NO = 999
REV_AT_EPOCH   = 547
BSTAR          = .13665372E-2
MEAN_MOTION_DOT = .54705E-3
MEAN_MOTION_DDOT = 0

CCSDS_OMM_VERS = 2.0
CREATION_DATE  = 
ORIGINATOR     = 

OBJECT_NAME    = STARLINK-35454
OBJECT_ID      = 2025-245C
CENTER_NAME    = EARTH
REF_FRAME      = TEME
TIME_SYSTEM    = UTC
MEAN_ELEMENT_THEORY = SGP/SGP4

EPOCH          = 2025-11-27T06:00:02.000160
MEAN_MOTION    = 15.39591867
ECCENTRICITY   = .00009854
INCLINATION    = 53.1607
RA_OF_ASC_NODE = 42.6225
ARG_OF_PERICENTER = 84.6020
MEAN_ANOMALY   = 203.3692

EPHEMERIS_TYPE = 0
CLASSIFICATION_TYPE = U
NORAD_CAT_ID   = 66236
ELEMENT_SET_NO = 999
REV_AT_EPOCH   = 545
BSTAR          = .10288072E-2
MEAN_MOTION_DOT = .40935E-3
MEAN_MOTION_DDOT = 0

CCSDS_OMM_VERS = 2.0
CREATION_DATE  = 
ORIGINATOR     = 

OBJECT_NAME    = STARLINK-35557
OBJECT_ID      = 2025-245D
CENTER_NAME    = EARTH
REF_FRAME      = TEME
TIME_SYSTEM    = UTC
MEAN_ELEMENT_THEORY = SGP/SGP4

EPOCH          = 2025-11-27T06:00:02.000160
MEAN_MOTION    = 15.39618597
ECCENTRICITY   = .00022231
INCLINATION    = 53.1608
RA_OF_ASC_NODE = 42.6187
ARG_OF_PERICENTER = 39.2621
MEAN_ANOMALY   = 250.5025

EPHEMERIS_TYPE = 0
CLASSIFICATION_TYPE = U
NORAD_CAT_ID   = 66237
ELEMENT_SET_NO = 999
REV_AT_EPOCH   = 561
BSTAR          = .8002298E-3
MEAN_MOTION_DOT = .31742E-3
MEAN_MOTION_DDOT = 0

CCSDS_OMM_VERS = 2.0
CREATION_DATE  = 
ORIGINATOR     = 

OBJECT_NAME    = STARLINK-35556
OBJECT_ID      = 2025-245E
CENTER_NAME    = EARTH
REF_FRAME      = TEME
TIME_SYSTEM    = UTC
MEAN_ELEMENT_THEORY = SGP/SGP4

EPOCH          = 2025-11-27T06:00:02.000160
MEAN_MOTION    = 15.39607178
ECCENTRICITY   = .00016814
INCLINATION    = 53.1610
RA_OF_ASC_NODE = 42.5705
ARG_OF_PERICENTER = 104.8124
MEAN_ANOMALY   = 208.8995

EPHEMERIS_TYPE = 0
CLASSIFICATION_TYPE = U
NORAD_CAT_ID   = 66238
ELEMENT_SET_NO = 999
REV_AT_EPOCH   = 561
BSTAR          = .78075387E-3
MEAN_MOTION_DOT = .30944E-3
MEAN_MOTION_DDOT = 0

CCSDS_OMM_VERS = 2.0
CREATION_DATE  = 
ORIGINATOR     = 

OBJECT_NAME    = STARLINK-35554
OBJECT_ID      = 2025-245F
CENTER_NAME    = EARTH
REF_FRAME      = TEME
TIME_SYSTEM    = UTC
MEAN_ELEMENT_THEORY = SGP/SGP4

EPOCH          = 2025-11-27T06:00:02.000160
MEAN_MOTION    = 15.39561755
ECCENTRICITY   = .00018339
INCLINATION    = 53.1610
RA_OF_ASC_NODE = 42.5669
ARG_OF_PERICENTER = 104.9428
MEAN_ANOMALY   = 210.6120

EPHEMERIS_TYPE = 0
CLASSIFICATION_TYPE = U
NORAD_CAT_ID   = 66239
ELEMENT_SET_NO = 999
REV_AT_EPOCH   = 545
BSTAR          = .14851661E-2
MEAN_MOTION_DOT = .59356E-3
MEAN_MOTION_DDOT = 0

CCSDS_OMM_VERS = 2.0
CREATION_DATE  = 
ORIGINATOR     = 

OBJECT_NAME    = STARLINK-35546
OBJECT_ID      = 2025-245G
CENTER_NAME    = EARTH
REF_FRAME      = TEME
TIME_SYSTEM    = UTC
MEAN_ELEMENT_THEORY = SGP/SGP4

EPOCH          = 2025-11-27T06:00:02.000160
MEAN_MOTION    = 15.39601704
ECCENTRICITY   = .00016481
INCLINATION    = 53.1609
RA_OF_ASC_NODE = 42.5195
ARG_OF_PERICENTER = 82.8718
MEAN_ANOMALY   = 256.5991

EPHEMERIS_TYPE = 0
CLASSIFICATION_TYPE = U
NORAD_CAT_ID   = 66240
ELEMENT_SET_NO = 999
REV_AT_EPOCH   = 561
BSTAR          = .78503014E-3
MEAN_MOTION_DOT = .3111E-3
MEAN_MOTION_DDOT = 0

CCSDS_OMM_VERS = 2.0
CREATION_DATE  = 
ORIGINATOR     = 

OBJECT_NAME    = STARLINK-35497
OBJECT_ID      = 2025-245H
CENTER_NAME    = EARTH
REF_FRAME      = TEME
TIME_SYSTEM    = UTC
MEAN_ELEMENT_THEORY = SGP/SGP4

EPOCH          = 2025-11-27T06:00:02.000160
MEAN_MOTION    = 15.39601210
ECCENTRICITY   = .00015345
INCLINATION    = 53.1608
RA_OF_ASC_NODE = 42.5162
ARG_OF_PERICENTER = 86.5659
MEAN_ANOMALY   = 254.7344

EPHEMERIS_TYPE = 0
CLASSIFICATION_TYPE = U
NORAD_CAT_ID   = 66241
ELEMENT_SET_NO = 999
REV_AT_EPOCH   = 556
BSTAR          = .82057186E-3
MEAN_MOTION_DOT = .32542E-3
MEAN_MOTION_DDOT = 0

